[{"OBJECT_NAME":"IRIDIUM 152","OBJECT_ID":"2018-047D","EPOCH":"2026-03-09T16:21:38.136960","MEAN_MOTION":14.34219217,"ECCENTRICITY":0.00022297,"INCLINATION":86.3976,"RA_OF_ASC_NODE":129.947,"ARG_OF_PERICENTER":92.4036,"MEAN_ANOMALY":267.7415,"EPHEMERIS_TYPE":0,"CLASSIFICATION_TYPE":"U","NORAD_CAT_ID":43479,"ELEMENT_SET_NO":999,"REV_AT_EPOCH":40822,"BSTAR":9.8771642e-5,"MEAN_MOTION_DOT":2.96e-6,"MEAN_MOTION_DDOT":0},{"OBJECT_NAME":"COSMOS 494","OBJECT_ID":"1972-043A","EPOCH":"2026-03-09T23:17:00.748320","MEAN_MOTION":14.36504996,"ECCENTRICITY":0.00093146,"INCLINATION":74.0528,"RA_OF_ASC_NODE":263.9356,"ARG_OF_PERICENTER":63.6717,"MEAN_ANOMALY":296.5392,"EPHEMERIS_TYPE":0,"CLASSIFICATION_TYPE":"U","NORAD_CAT_ID":6059,"ELEMENT_SET_NO":999,"REV_AT_EPOCH":80989,"BSTAR":6.0678071e-5,"MEAN_MOTION_DOT":1.52e-6,"MEAN_MOTION_DDOT":0}]
